{
  "type": "FeatureCollection",
  "features": [
    {
      "type": "Feature",
      "properties": {
        "norad_id": 38867,
        "name": "INTELSAT 23 (IS-23)",
        "group": "intelsat",
        "lat": -0.03391463658959449,
        "lon": -27.645057737797796,
        "alt_km": 35789.111962182185,
        "timestamp": "2025-12-06T20:37:55.727153+00:00",
        "meta_object_name": "INTELSAT 23 (IS-23)",
        "meta_object_id": "2012-057A",
        "meta_epoch": "2025-12-06T11:42:00.871776",
        "meta_mean_motion": 1.00267666,
        "meta_eccentricity": 0.00016876,
        "meta_inclination": 0.0474,
        "meta_ra_of_asc_node": 98.6565,
        "meta_arg_of_pericenter": 128.5865,
        "meta_mean_anomaly": 330.7637,
        "meta_ephemeris_type": 0,
        "meta_classification_type": "U",
        "meta_norad_cat_id": 38867,
        "meta_element_set_no": 999,
        "meta_rev_at_epoch": 4802,
        "meta_bstar": 0,
        "meta_mean_motion_dot": -2.78e-06,
        "meta_mean_motion_ddot": 0,
        "tle_line1": "1 38867U 12057A   25340.48751009 -.00000278  00000+0  00000+0 0  9991",
        "tle_line2": "2 38867   0.0474  98.6565 0001687 128.5865 330.7637  1.00267666 48022"
      },
      "geometry": {
        "type": "Point",
        "coordinates": [
          -27.645057737797796,
          -0.03391463658959449
        ]
      }
    },
    {
      "type": "Feature",
      "properties": {
        "norad_id": 39360,
        "name": "FM-6",
        "group": "intelsat",
        "lat": 0.0017107558682321704,
        "lon": -90.74637473531115,
        "alt_km": 35787.24059220789,
        "timestamp": "2025-12-06T20:37:55.727165+00:00",
        "meta_object_name": "FM-6",
        "meta_object_id": "2013-058A",
        "meta_epoch": "2025-12-06T10:46:18.103296",
        "meta_mean_motion": 1.0027208,
        "meta_eccentricity": 0.00028436,
        "meta_inclination": 0.0119,
        "meta_ra_of_asc_node": 101.1481,
        "meta_arg_of_pericenter": 71.9621,
        "meta_mean_anomaly": 307.8093,
        "meta_ephemeris_type": 0,
        "meta_classification_type": "U",
        "meta_norad_cat_id": 39360,
        "meta_element_set_no": 999,
        "meta_rev_at_epoch": 4414,
        "meta_bstar": 0,
        "meta_mean_motion_dot": -1e-07,
        "meta_mean_motion_ddot": 0,
        "tle_line1": "1 39360U 13058A   25340.44882064 -.00000010  00000+0  00000+0 0  9998",
        "tle_line2": "2 39360   0.0119 101.1481 0002843  71.9621 307.8093  1.00272080 44146"
      },
      "geometry": {
        "type": "Point",
        "coordinates": [
          -90.74637473531115,
          0.0017107558682321704
        ]
      }
    },
    {
      "type": "Feature",
      "properties": {
        "norad_id": 40271,
        "name": "INTELSAT 30 (IS-30)",
        "group": "intelsat",
        "lat": -0.030885321815747054,
        "lon": -69.7136998871835,
        "alt_km": 35796.28750156107,
        "timestamp": "2025-12-06T20:37:55.727177+00:00",
        "meta_object_name": "INTELSAT 30 (IS-30)",
        "meta_object_id": "2014-062A",
        "meta_epoch": "2025-12-06T10:59:06.444672",
        "meta_mean_motion": 1.00259344,
        "meta_eccentricity": 0.00016239,
        "meta_inclination": 0.013,
        "meta_ra_of_asc_node": 13.427,
        "meta_arg_of_pericenter": 84.1507,
        "meta_mean_anomaly": 47.6396,
        "meta_ephemeris_type": 0,
        "meta_classification_type": "U",
        "meta_norad_cat_id": 40271,
        "meta_element_set_no": 999,
        "meta_rev_at_epoch": 485,
        "meta_bstar": 0,
        "meta_mean_motion_dot": -1.42e-06,
        "meta_mean_motion_ddot": 0,
        "tle_line1": "1 40271U 14062A   25340.45771348 -.00000142  00000+0  00000+0 0  9996",
        "tle_line2": "2 40271   0.0130  13.4270 0001623  84.1507  47.6396  1.00259344  4854"
      },
      "geometry": {
        "type": "Point",
        "coordinates": [
          -69.7136998871835,
          -0.030885321815747054
        ]
      }
    },
    {
      "type": "Feature",
      "properties": {
        "norad_id": 40333,
        "name": "DIRECTV 14",
        "group": "intelsat",
        "lat": -0.03248375900825305,
        "lon": -73.85146675530292,
        "alt_km": 35785.9258449586,
        "timestamp": "2025-12-06T20:37:55.727189+00:00",
        "meta_object_name": "DIRECTV 14",
        "meta_object_id": "2014-078B",
        "meta_epoch": "2025-12-06T10:56:19.521600",
        "meta_mean_motion": 1.00270117,
        "meta_eccentricity": 3.629e-05,
        "meta_inclination": 0.0171,
        "meta_ra_of_asc_node": 336.5388,
        "meta_arg_of_pericenter": 244.038,
        "meta_mean_anomaly": 279.7819,
        "meta_ephemeris_type": 0,
        "meta_classification_type": "U",
        "meta_norad_cat_id": 40333,
        "meta_element_set_no": 999,
        "meta_rev_at_epoch": 4011,
        "meta_bstar": 0,
        "meta_mean_motion_dot": -1.18e-06,
        "meta_mean_motion_ddot": 0,
        "tle_line1": "1 40333U 14078B   25340.45578150 -.00000118  00000+0  00000+0 0  9991",
        "tle_line2": "2 40333   0.0171 336.5388 0000362 244.0380 279.7819  1.00270117 40110"
      },
      "geometry": {
        "type": "Point",
        "coordinates": [
          -73.85146675530292,
          -0.03248375900825305
        ]
      }
    },
    {
      "type": "Feature",
      "properties": {
        "norad_id": 40663,
        "name": "DIRECTV 15",
        "group": "intelsat",
        "lat": -0.03030425582299974,
        "lon": -77.49112157375151,
        "alt_km": 35784.26525426458,
        "timestamp": "2025-12-06T20:37:55.727201+00:00",
        "meta_object_name": "DIRECTV 15",
        "meta_object_id": "2015-026A",
        "meta_epoch": "2025-12-06T10:54:16.360128",
        "meta_mean_motion": 1.00272182,
        "meta_eccentricity": 4.536e-05,
        "meta_inclination": 0.0393,
        "meta_ra_of_asc_node": 80.8757,
        "meta_arg_of_pericenter": 174.9502,
        "meta_mean_anomaly": 240.3768,
        "meta_ephemeris_type": 0,
        "meta_classification_type": "U",
        "meta_norad_cat_id": 40663,
        "meta_element_set_no": 999,
        "meta_rev_at_epoch": 3853,
        "meta_bstar": 0,
        "meta_mean_motion_dot": -9.6e-07,
        "meta_mean_motion_ddot": 0,
        "tle_line1": "1 40663U 15026A   25340.45435602 -.00000096  00000+0  00000+0 0  9990",
        "tle_line2": "2 40663   0.0393  80.8757 0000453 174.9502 240.3768  1.00272182 38533"
      },
      "geometry": {
        "type": "Point",
        "coordinates": [
          -77.49112157375151,
          -0.03030425582299974
        ]
      }
    },
    {
      "type": "Feature",
      "properties": {
        "norad_id": 40664,
        "name": "SKY MEXICO-1",
        "group": "intelsat",
        "lat": -0.024500745151881616,
        "lon": -53.38187794423885,
        "alt_km": 35776.983227211684,
        "timestamp": "2025-12-06T20:37:55.727213+00:00",
        "meta_object_name": "SKY MEXICO-1",
        "meta_object_id": "2015-026B",
        "meta_epoch": "2025-12-06T11:07:07.278816",
        "meta_mean_motion": 1.00271024,
        "meta_eccentricity": 0.00027693,
        "meta_inclination": 0.0128,
        "meta_ra_of_asc_node": 27.0502,
        "meta_arg_of_pericenter": 242.5466,
        "meta_mean_anomaly": 253.921,
        "meta_ephemeris_type": 0,
        "meta_classification_type": "U",
        "meta_norad_cat_id": 40664,
        "meta_element_set_no": 999,
        "meta_rev_at_epoch": 3852,
        "meta_bstar": 0,
        "meta_mean_motion_dot": -2.27e-06,
        "meta_mean_motion_ddot": 0,
        "tle_line1": "1 40664U 15026B   25340.46327869 -.00000227  00000+0  00000+0 0  9993",
        "tle_line2": "2 40664   0.0128  27.0502 0002769 242.5466 253.9210  1.00271024 38529"
      },
      "geometry": {
        "type": "Point",
        "coordinates": [
          -53.38187794423885,
          -0.024500745151881616
        ]
      }
    },
    {
      "type": "Feature",
      "properties": {
        "norad_id": 40874,
        "name": "INTELSAT 34 (IS-34)",
        "group": "intelsat",
        "lat": 0.005174415119824584,
        "lon": -30.126573243614754,
        "alt_km": 35788.2020967925,
        "timestamp": "2025-12-06T20:37:55.727225+00:00",
        "meta_object_name": "INTELSAT 34 (IS-34)",
        "meta_object_id": "2015-039A",
        "meta_epoch": "2025-12-06T09:58:40.768896",
        "meta_mean_motion": 1.00272262,
        "meta_eccentricity": 6.743e-05,
        "meta_inclination": 0.0113,
        "meta_ra_of_asc_node": 309.7424,
        "meta_arg_of_pericenter": 238.8408,
        "meta_mean_anomaly": 341.0453,
        "meta_ephemeris_type": 0,
        "meta_classification_type": "U",
        "meta_norad_cat_id": 40874,
        "meta_element_set_no": 999,
        "meta_rev_at_epoch": 3769,
        "meta_bstar": 0,
        "meta_mean_motion_dot": -2.78e-06,
        "meta_mean_motion_ddot": 0,
        "tle_line1": "1 40874U 15039A   25340.41574964 -.00000278  00000+0  00000+0 0  9991",
        "tle_line2": "2 40874   0.0113 309.7424 0000674 238.8408 341.0453  1.00272262 37696"
      },
      "geometry": {
        "type": "Point",
        "coordinates": [
          -30.126573243614754,
          0.005174415119824584
        ]
      }
    }
  ]
}